{
  "links" : {
    "next" : "https://api.nasa.gov/neo/rest/v1/feed?start_date=2015-01-16&end_date=2015-01-16&detailed=true&api_key=t0TVs3DtDT2H8Oy2Zy8m2eVrNsAVKAexjcZXUckd",
    "prev" : "https://api.nasa.gov/neo/rest/v1/feed?start_date=2015-01-14&end_date=2015-01-14&detailed=true&api_key=t0TVs3DtDT2H8Oy2Zy8m2eVrNsAVKAexjcZXUckd",
    "self" : "https://api.nasa.gov/neo/rest/v1/feed?start_date=2015-01-15&end_date=2015-01-15&detailed=true&api_key=t0TVs3DtDT2H8Oy2Zy8m2eVrNsAVKAexjcZXUckd"
  },
  "element_count" : 17,
  "near_earth_objects" : {
    "2015-01-15" : [ {
      "links" : {
        "self" : "https://api.nasa.gov/neo/rest/v1/neo/3177202?api_key=t0TVs3DtDT2H8Oy2Zy8m2eVrNsAVKAexjcZXUckd"
      },
      "neo_reference_id" : "3177202",
      "name" : "(2004 FH)",
      "nasa_jpl_url" : "http://ssd.jpl.nasa.gov/sbdb.cgi?sstr=3177202",
      "absolute_magnitude_h" : 25.7,
      "estimated_diameter" : {
        "kilometers" : {
          "estimated_diameter_min" : 0.0192555078,
          "estimated_diameter_max" : 0.0430566244
        },
        "meters" : {
          "estimated_diameter_min" : 19.2555078188,
          "estimated_diameter_max" : 43.0566244241
        },
        "miles" : {
          "estimated_diameter_min" : 0.0119648141,
          "estimated_diameter_max" : 0.0267541378
        },
        "feet" : {
          "estimated_diameter_min" : 63.1742402722,
          "estimated_diameter_max" : 141.2618956756
        }
      },
      "is_potentially_hazardous_asteroid" : false,
      "close_approach_data" : [ {
        "close_approach_date" : "2015-01-15",
        "epoch_date_close_approach" : 1421308800000,
        "relative_velocity" : {
          "kilometers_per_second" : "16.470870034",
          "kilometers_per_hour" : "59295.1321223719",
          "miles_per_hour" : "36843.6891790372"
        },
        "miss_distance" : {
          "astronomical" : "0.2915950452",
          "lunar" : "113.4304733276",
          "kilometers" : "43621996",
          "miles" : "27105452"
        },
        "orbiting_body" : "Earth"
      } ],
      "orbital_data" : {
        "orbit_id" : "21",
        "orbit_determination_date" : "2017-04-06 09:13:05",
        "orbit_uncertainty" : "5",
        "minimum_orbit_intersection" : "2.06111E-6",
        "jupiter_tisserand_invariant" : "7.120",
        "epoch_osculation" : "2458000.5",
        "eccentricity" : ".2890667509402134",
        "semi_major_axis" : ".8180401793655486",
        "inclination" : ".02098654628181642",
        "ascending_node_longitude" : "290.9775331785905",
        "orbital_period" : "270.2466877514277",
        "perihelion_distance" : ".5815719625778001",
        "perihelion_argument" : "36.62217363134805",
        "aphelion_distance" : "1.054508396153297",
        "perihelion_time" : "2458043.322650698304",
        "mean_anomaly" : "302.9552518121182",
        "mean_motion" : "1.332116234227918",
        "equinox" : "J2000"
      }
    }, {
      "links" : {
        "self" : "https://api.nasa.gov/neo/rest/v1/neo/3370021?api_key=t0TVs3DtDT2H8Oy2Zy8m2eVrNsAVKAexjcZXUckd"
      },
      "neo_reference_id" : "3370021",
      "name" : "(2007 EC)",
      "nasa_jpl_url" : "http://ssd.jpl.nasa.gov/sbdb.cgi?sstr=3370021",
      "absolute_magnitude_h" : 22.2,
      "estimated_diameter" : {
        "kilometers" : {
          "estimated_diameter_min" : 0.096506147,
          "estimated_diameter_max" : 0.2157943048
        },
        "meters" : {
          "estimated_diameter_min" : 96.5061469579,
          "estimated_diameter_max" : 215.7943048444
        },
        "miles" : {
          "estimated_diameter_min" : 0.059966121,
          "estimated_diameter_max" : 0.134088323
        },
        "feet" : {
          "estimated_diameter_min" : 316.6212271853,
          "estimated_diameter_max" : 707.9865871058
        }
      },
      "is_potentially_hazardous_asteroid" : true,
      "close_approach_data" : [ {
        "close_approach_date" : "2015-01-15",
        "epoch_date_close_approach" : 1421308800000,
        "relative_velocity" : {
          "kilometers_per_second" : "6.5954029877",
          "kilometers_per_hour" : "23743.45075569",
          "miles_per_hour" : "14753.2569431675"
        },
        "miss_distance" : {
          "astronomical" : "0.0274543639",
          "lunar" : "10.6797475815",
          "kilometers" : "4107114.25",
          "miles" : "2552042.5"
        },
        "orbiting_body" : "Earth"
      } ],
      "orbital_data" : {
        "orbit_id" : "44",
        "orbit_determination_date" : "2017-04-06 09:06:52",
        "orbit_uncertainty" : "0",
        "minimum_orbit_intersection" : ".0245325",
        "jupiter_tisserand_invariant" : "6.430",
        "epoch_osculation" : "2458000.5",
        "eccentricity" : ".1958245756801665",
        "semi_major_axis" : ".9282530691577595",
        "inclination" : "5.851242109102129",
        "ascending_node_longitude" : "307.6796838709373",
        "orbital_period" : "326.6615493870136",
        "perihelion_distance" : ".7464783057661291",
        "perihelion_argument" : "46.27532227227935",
        "aphelion_distance" : "1.11002783254939",
        "perihelion_time" : "2457927.999112423733",
        "mean_anomaly" : "79.90018897673681",
        "mean_motion" : "1.102058080222624",
        "equinox" : "J2000"
      }
    }, {
      "links" : {
        "self" : "https://api.nasa.gov/neo/rest/v1/neo/3545973?api_key=t0TVs3DtDT2H8Oy2Zy8m2eVrNsAVKAexjcZXUckd"
      },
      "neo_reference_id" : "3545973",
      "name" : "(2010 RM80)",
      "nasa_jpl_url" : "http://ssd.jpl.nasa.gov/sbdb.cgi?sstr=3545973",
      "absolute_magnitude_h" : 27.9,
      "estimated_diameter" : {
        "kilometers" : {
          "estimated_diameter_min" : 0.0069912523,
          "estimated_diameter_max" : 0.0156329154
        },
        "meters" : {
          "estimated_diameter_min" : 6.9912523225,
          "estimated_diameter_max" : 15.6329154409
        },
        "miles" : {
          "estimated_diameter_min" : 0.0043441614,
          "estimated_diameter_max" : 0.0097138403
        },
        "feet" : {
          "estimated_diameter_min" : 22.9371802696,
          "estimated_diameter_max" : 51.289094295
        }
      },
      "is_potentially_hazardous_asteroid" : false,
      "close_approach_data" : [ {
        "close_approach_date" : "2015-01-15",
        "epoch_date_close_approach" : 1421308800000,
        "relative_velocity" : {
          "kilometers_per_second" : "7.8671243869",
          "kilometers_per_hour" : "28321.6477929885",
          "miles_per_hour" : "17597.9705411489"
        },
        "miss_distance" : {
          "astronomical" : "0.4287819222",
          "lunar" : "166.7961730957",
          "kilometers" : "64144864",
          "miles" : "39857772"
        },
        "orbiting_body" : "Earth"
      } ],
      "orbital_data" : {
        "orbit_id" : "12",
        "orbit_determination_date" : "2017-04-06 08:56:44",
        "orbit_uncertainty" : "7",
        "minimum_orbit_intersection" : ".00198414",
        "jupiter_tisserand_invariant" : "5.353",
        "epoch_osculation" : "2458000.5",
        "eccentricity" : ".1996047182508792",
        "semi_major_axis" : "1.176599528901179",
        "inclination" : "2.364894497164541",
        "ascending_node_longitude" : "345.0342149004382",
        "orbital_period" : "466.1668986564298",
        "perihelion_distance" : ".9417447114407423",
        "perihelion_argument" : "304.3011122633482",
        "aphelion_distance" : "1.411454346361617",
        "perihelion_time" : "2458194.836660666625",
        "mean_anomaly" : "209.9224246903312",
        "mean_motion" : ".772255604242986",
        "equinox" : "J2000"
      }
    } ]
  }
}